[{"OBJECT_NAME":"ONEWEB-0440","OBJECT_ID":"2021-132AL","EPOCH":"2026-03-09T17:18:21.508992","MEAN_MOTION":13.18686204,"ECCENTRICITY":0.00015537,"INCLINATION":87.9253,"RA_OF_ASC_NODE":355.2047,"ARG_OF_PERICENTER":88.5982,"MEAN_ANOMALY":271.5328,"EPHEMERIS_TYPE":0,"CLASSIFICATION_TYPE":"U","NORAD_CAT_ID":50503,"ELEMENT_SET_NO":999,"REV_AT_EPOCH":20846,"BSTAR":-0.0001846939,"MEAN_MOTION_DOT":-6.0e-7,"MEAN_MOTION_DDOT":0},{"OBJECT_NAME":"THORAD AGENA D DEB","OBJECT_ID":"1970-025JN","EPOCH":"2026-03-09T18:21:50.648256","MEAN_MOTION":13.56832424,"ECCENTRICITY":0.01865745,"INCLINATION":99.308,"RA_OF_ASC_NODE":164.2925,"ARG_OF_PERICENTER":329.8722,"MEAN_ANOMALY":158.5514,"EPHEMERIS_TYPE":0,"CLASSIFICATION_TYPE":"U","NORAD_CAT_ID":5129,"ELEMENT_SET_NO":999,"REV_AT_EPOCH":72015,"BSTAR":0.0023447337,"MEAN_MOTION_DOT":1.818e-5,"MEAN_MOTION_DDOT":0}]
